HAWK-11B                
1 62379U 24247C   26068.44730104  .00009093  00000+0  32842-3 0  9993
2 62379  45.0161 115.7610 0004690 333.0326  27.0314 15.28847070 67738
STARLINK-34183          
1 64254U 25119X   26068.35085192  .00025166  00000+0  92119-3 0  9998
2 64254  43.0014 309.2964 0000942 283.8545  76.2202 15.27569860 44116
